{
"type": "FeatureCollection",
"name": "Hasil Survei Darat Amenitas Sri Nanti",
"crs": { "type": "name", "properties": { "name": "urn:ogc:def:crs:OGC:1.3:CRS84" } },
"features": [
{ "type": "Feature", "properties": { "Name": "WS01", "descriptio": "Warung Sembako", "timestamp": null, "begin": null, "end": null, "altitudeMo": null, "tessellate": -1, "extrude": 0, "visibility": -1, "drawOrder": null, "icon": null, "photos": ["amenitas-1.png"] }, "geometry": { "type": "Point", "coordinates": [ 117.276971, 4.155593 ] } },
{ "type": "Feature", "properties": { "Name": "W13", "descriptio": "Warung Sembako", "timestamp": null, "begin": null, "end": null, "altitudeMo": null, "tessellate": -1, "extrude": 0, "visibility": -1, "drawOrder": null, "icon": null, "photos": ["amenitas-2.png", "amenitas-3.png"] }, "geometry": { "type": "Point", "coordinates": [ 117.27845, 4.154727 ] } },
{ "type": "Feature", "properties": { "Name": "W12", "descriptio": "Warung Kedai Teras Nyammi", "timestamp": null, "begin": null, "end": null, "altitudeMo": null, "tessellate": -1, "extrude": 0, "visibility": -1, "drawOrder": null, "icon": null, "photos": ["amenitas-4.png"] }, "geometry": { "type": "Point", "coordinates": [ 117.278437, 4.153874 ] } },
{ "type": "Feature", "properties": { "Name": "W11", "descriptio": "Warung Nasi Mama Nilam", "timestamp": null, "begin": null, "end": null, "altitudeMo": null, "tessellate": -1, "extrude": 0, "visibility": -1, "drawOrder": null, "icon": null, "photos": ["amenitas-5.png"] }, "geometry": { "type": "Point", "coordinates": [ 117.278657, 4.153391 ] } },
{ "type": "Feature", "properties": { "Name": "W10", "descriptio": "Warung Nasi", "timestamp": null, "begin": null, "end": null, "altitudeMo": null, "tessellate": -1, "extrude": 0, "visibility": -1, "drawOrder": null, "icon": null, "photos": ["amenitas-6.png"] }, "geometry": { "type": "Point", "coordinates": [ 117.280425, 4.152597 ] } },
{ "type": "Feature", "properties": { "Name": "W09", "descriptio": "Warung Sembako", "timestamp": null, "begin": null, "end": null, "altitudeMo": null, "tessellate": -1, "extrude": 0, "visibility": -1, "drawOrder": null, "icon": null, "photos": ["amenitas-7.png"] }, "geometry": { "type": "Point", "coordinates": [ 117.28015, 4.155738 ] } },
{ "type": "Feature", "properties": { "Name": "W08", "descriptio": "Toko Sembako dan Perlengkapan Solata Makmur", "timestamp": null, "begin": null, "end": null, "altitudeMo": null, "tessellate": -1, "extrude": 0, "visibility": -1, "drawOrder": null, "icon": null, "photos": ["amenitas-8.png"] }, "geometry": { "type": "Point", "coordinates": [ 117.277893, 4.155623 ] } },
{ "type": "Feature", "properties": { "Name": "W07", "descriptio": "Toko Sembako Istikomah", "timestamp": null, "begin": null, "end": null, "altitudeMo": null, "tessellate": -1, "extrude": 0, "visibility": -1, "drawOrder": null, "icon": null, "photos": ["amenitas-9.png"] }, "geometry": { "type": "Point", "coordinates": [ 117.276626, 4.15707 ] } },
{ "type": "Feature", "properties": { "Name": "W06", "descriptio": "Toko Perlengkapan Mama Era", "timestamp": null, "begin": null, "end": null, "altitudeMo": null, "tessellate": -1, "extrude": 0, "visibility": -1, "drawOrder": null, "icon": null, "photos": ["amenitas-10.png"] }, "geometry": { "type": "Point", "coordinates": [ 117.274655, 4.1597 ] } },
{ "type": "Feature", "properties": { "Name": "W05", "descriptio": "Toko Perlengkapan Pamamana", "timestamp": null, "begin": null, "end": null, "altitudeMo": null, "tessellate": -1, "extrude": 0, "visibility": -1, "drawOrder": null, "icon": null, "photos": ["amenitas-11.png"] }, "geometry": { "type": "Point", "coordinates": [ 117.274735, 4.159772 ] } },
{ "type": "Feature", "properties": { "Name": "W04", "descriptio": "Warung Makan", "timestamp": null, "begin": null, "end": null, "altitudeMo": null, "tessellate": -1, "extrude": 0, "visibility": -1, "drawOrder": null, "icon": null, "photos": ["amenitas-12.png"] }, "geometry": { "type": "Point", "coordinates": [ 117.274825, 4.159152 ] } },
{ "type": "Feature", "properties": { "Name": "W03", "descriptio": "Warung Makan Di'Macik", "timestamp": null, "begin": null, "end": null, "altitudeMo": null, "tessellate": -1, "extrude": 0, "visibility": -1, "drawOrder": null, "icon": null, "photos": ["amenitas-13.png"] }, "geometry": { "type": "Point", "coordinates": [ 117.274724, 4.156337 ] } },
{ "type": "Feature", "properties": { "Name": "W02", "descriptio": "Warung Makan Nirnas", "timestamp": null, "begin": null, "end": null, "altitudeMo": null, "tessellate": -1, "extrude": 0, "visibility": -1, "drawOrder": null, "icon": null, "photos": ["amenitas-14.png"] }, "geometry": { "type": "Point", "coordinates": [ 117.274828, 4.155536 ] } },
{ "type": "Feature", "properties": { "Name": "W01", "descriptio": "Warung Sembako Nikita", "timestamp": null, "begin": null, "end": null, "altitudeMo": null, "tessellate": -1, "extrude": 0, "visibility": -1, "drawOrder": null, "icon": null, "photos": ["amenitas-15.png"] }, "geometry": { "type": "Point", "coordinates": [ 117.276395, 4.155394 ] } },
{ "type": "Feature", "properties": { "Name": "USW", "descriptio": "Usaha Walet", "timestamp": null, "begin": null, "end": null, "altitudeMo": null, "tessellate": -1, "extrude": 0, "visibility": -1, "drawOrder": null, "icon": null, "photos": ["amenitas-16.png"] }, "geometry": { "type": "Point", "coordinates": [ 117.280398, 4.156235 ] } },
{ "type": "Feature", "properties": { "Name": "TSB", "descriptio": "Toko Serbaguna", "timestamp": null, "begin": null, "end": null, "altitudeMo": null, "tessellate": -1, "extrude": 0, "visibility": -1, "drawOrder": null, "icon": null, "photos": ["amenitas-17.png"] }, "geometry": { "type": "Point", "coordinates": [ 117.279191, 4.151752 ] } },
{ "type": "Feature", "properties": { "Name": "TS02", "descriptio": "Warung Sembako dan Ikan", "timestamp": null, "begin": null, "end": null, "altitudeMo": null, "tessellate": -1, "extrude": 0, "visibility": -1, "drawOrder": null, "icon": null, "photos": ["amenitas-18.png", "amenitas-19.png"] }, "geometry": { "type": "Point", "coordinates": [ 117.279079, 4.157458 ] } },
{ "type": "Feature", "properties": { "Name": "TPU", "descriptio": "Tempat Pemakaman Umum", "timestamp": null, "begin": null, "end": null, "altitudeMo": null, "tessellate": -1, "extrude": 0, "visibility": -1, "drawOrder": null, "icon": null, "photos": ["amenitas-20.png"] }, "geometry": { "type": "Point", "coordinates": [ 117.285512, 4.155926 ] } },
{ "type": "Feature", "properties": { "Name": "TPQ", "descriptio": "TPQ Nurul Huda", "timestamp": null, "begin": null, "end": null, "altitudeMo": null, "tessellate": -1, "extrude": 0, "visibility": -1, "drawOrder": null, "icon": null, "photos": ["amenitas-21.png"] }, "geometry": { "type": "Point", "coordinates": [ 117.278701, 4.157681 ] } },
{ "type": "Feature", "properties": { "Name": "TP", "descriptio": "Toko Perlengkapan", "timestamp": null, "begin": null, "end": null, "altitudeMo": null, "tessellate": -1, "extrude": 0, "visibility": -1, "drawOrder": null, "icon": null, "photos": ["amenitas-22.png"] }, "geometry": { "type": "Point", "coordinates": [ 117.277217, 4.155694 ] } },
{ "type": "Feature", "properties": { "Name": "TG02", "descriptio": "Toko Galon Air Depot Cahaya Sedenreng", "timestamp": null, "begin": null, "end": null, "altitudeMo": null, "tessellate": -1, "extrude": 0, "visibility": -1, "drawOrder": null, "icon": null, "photos": ["amenitas-23.png", "amenitas-24.png"] }, "geometry": { "type": "Point", "coordinates": [ 117.275017, 4.15196 ] } },
{ "type": "Feature", "properties": { "Name": "TG", "descriptio": "Toko Galon Air", "timestamp": null, "begin": null, "end": null, "altitudeMo": null, "tessellate": -1, "extrude": 0, "visibility": -1, "drawOrder": null, "icon": null, "photos": ["amenitas-25.png"] }, "geometry": { "type": "Point", "coordinates": [ 117.282068, 4.151699 ] } },
{ "type": "Feature", "properties": { "Name": "T02", "descriptio": "Toko Elektronik", "timestamp": null, "begin": null, "end": null, "altitudeMo": null, "tessellate": -1, "extrude": 0, "visibility": -1, "drawOrder": null, "icon": null, "photos": ["amenitas-26.png"] }, "geometry": { "type": "Point", "coordinates": [ 117.277501, 4.155462 ] } },
{ "type": "Feature", "properties": { "Name": "T01", "descriptio": "Toko Perlengkapan dan Elektronik Mbak Susi", "timestamp": null, "begin": null, "end": null, "altitudeMo": null, "tessellate": -1, "extrude": 0, "visibility": -1, "drawOrder": null, "icon": null, "photos": ["amenitas-27.png", "amenitas-28.png", "amenitas-29.png"] }, "geometry": { "type": "Point", "coordinates": [ 117.276614, 4.156743 ] } },
{ "type": "Feature", "properties": { "Name": "Sumber Mata Air Bersih", "descriptio": "Sumber Mata Air Bersih", "timestamp": null, "begin": null, "end": null, "altitudeMo": null, "tessellate": -1, "extrude": 0, "visibility": -1, "drawOrder": null, "icon": null, "photos": ["amenitas-30.png"] }, "geometry": { "type": "Point", "coordinates": [ 117.285279, 4.150308 ] } },
{ "type": "Feature", "properties": { "Name": "SP", "descriptio": "Sekretariat Pakuwaja", "timestamp": null, "begin": null, "end": null, "altitudeMo": null, "tessellate": -1, "extrude": 0, "visibility": -1, "drawOrder": null, "icon": null, "photos": ["amenitas-31.png"] }, "geometry": { "type": "Point", "coordinates": [ 117.282482, 4.153377 ] } },
{ "type": "Feature", "properties": { "Name": "SL", "descriptio": "Kembar Salon", "timestamp": null, "begin": null, "end": null, "altitudeMo": null, "tessellate": -1, "extrude": 0, "visibility": -1, "drawOrder": null, "icon": null, "photos": ["amenitas-32.png"] }, "geometry": { "type": "Point", "coordinates": [ 117.277281, 4.151978 ] } },
{ "type": "Feature", "properties": { "Name": "SD 003", "descriptio": "SD Negeri 003 Sei-Menggaris", "timestamp": null, "begin": null, "end": null, "altitudeMo": null, "tessellate": -1, "extrude": 0, "visibility": -1, "drawOrder": null, "icon": null, "photos": ["amenitas-33.png"] }, "geometry": { "type": "Point", "coordinates": [ 117.27933, 4.15517 ] } },
{ "type": "Feature", "properties": { "Name": "SB", "descriptio": "She Boba (Minuman Boba)", "timestamp": null, "begin": null, "end": null, "altitudeMo": null, "tessellate": -1, "extrude": 0, "visibility": -1, "drawOrder": null, "icon": null, "photos": ["amenitas-34.png"] }, "geometry": { "type": "Point", "coordinates": [ 117.277814, 4.151928 ] } },
{ "type": "Feature", "properties": { "Name": "PY", "descriptio": "Posyandu Anggur 2", "timestamp": null, "begin": null, "end": null, "altitudeMo": null, "tessellate": -1, "extrude": 0, "visibility": -1, "drawOrder": null, "icon": null, "photos": ["amenitas-35.png"] }, "geometry": { "type": "Point", "coordinates": [ 117.28049, 4.153822 ] } },
{ "type": "Feature", "properties": { "Name": "PU", "descriptio": "Paud \"Citra Ananda\"", "timestamp": null, "begin": null, "end": null, "altitudeMo": null, "tessellate": -1, "extrude": 0, "visibility": -1, "drawOrder": null, "icon": null, "photos": ["amenitas-36.png"] }, "geometry": { "type": "Point", "coordinates": [ 117.280458, 4.153861 ] } },
{ "type": "Feature", "properties": { "Name": "PSR", "descriptio": "Pasar", "timestamp": null, "begin": null, "end": null, "altitudeMo": null, "tessellate": -1, "extrude": 0, "visibility": -1, "drawOrder": null, "icon": null, "photos": ["amenitas-41.png", "amenitas-37.png"] }, "geometry": { "type": "Point", "coordinates": [ 117.278824, 4.153837 ] } },
{ "type": "Feature", "properties": { "Name": "PS", "descriptio": "UPT. Puskesmas Sei Menggaris", "timestamp": null, "begin": null, "end": null, "altitudeMo": null, "tessellate": -1, "extrude": 0, "visibility": -1, "drawOrder": null, "icon": null, "photos": ["amenitas-38.png"] }, "geometry": { "type": "Point", "coordinates": [ 117.278652, 4.152772 ] } },
{ "type": "Feature", "properties": { "Name": "PR01", "descriptio": "Pangkas Rambut Putra Sulung", "timestamp": null, "begin": null, "end": null, "altitudeMo": null, "tessellate": -1, "extrude": 0, "visibility": -1, "drawOrder": null, "icon": null, "photos": ["amenitas-39.png"] }, "geometry": { "type": "Point", "coordinates": [ 117.280483, 4.155726 ] } },
{ "type": "Feature", "properties": { "Name": "PM01", "descriptio": "Pom Mini", "timestamp": null, "begin": null, "end": null, "altitudeMo": null, "tessellate": -1, "extrude": 0, "visibility": -1, "drawOrder": null, "icon": null, "photos": ["amenitas-40.png"] }, "geometry": { "type": "Point", "coordinates": [ 117.276659, 4.155445 ] } },
{ "type": "Feature", "properties": { "Name": "PLS", "descriptio": "Sajra Playstation", "timestamp": null, "begin": null, "end": null, "altitudeMo": null, "tessellate": -1, "extrude": 0, "visibility": -1, "drawOrder": null, "icon": null, "photos": ["amenitas-41.png"] }, "geometry": { "type": "Point", "coordinates": [ 117.27836, 4.15339 ] } },
{ "type": "Feature", "properties": { "Name": "PG", "descriptio": "A5 Playground Sei Menggaris", "timestamp": null, "begin": null, "end": null, "altitudeMo": null, "tessellate": -1, "extrude": 0, "visibility": -1, "drawOrder": null, "icon": null, "photos": ["amenitas-42.png"] }, "geometry": { "type": "Point", "coordinates": [ 117.280414, 4.154205 ] } },
{ "type": "Feature", "properties": { "Name": "Penginapan Bu Rusmini", "descriptio": "Penginapan Bu Rusmini", "timestamp": null, "begin": null, "end": null, "altitudeMo": null, "tessellate": -1, "extrude": 0, "visibility": -1, "drawOrder": null, "icon": null, "photos": ["amenitas-43.png"] }, "geometry": { "type": "Point", "coordinates": [ 117.276391, 4.15479 ] } },
{ "type": "Feature", "properties": { "Name": "Pelabuhan SB", "descriptio": "Pelabuhan Speed Boat SeiKitang baru", "timestamp": null, "begin": null, "end": null, "altitudeMo": null, "tessellate": -1, "extrude": 0, "visibility": -1, "drawOrder": null, "icon": null, "photos": ["amenitas-79.png"] }, "geometry": { "type": "Point", "coordinates": [ 117.29324, 4.162561 ] } },
{ "type": "Feature", "properties": { "Name": "P03", "descriptio": "Penginapan", "timestamp": null, "begin": null, "end": null, "altitudeMo": null, "tessellate": -1, "extrude": 0, "visibility": -1, "drawOrder": null, "icon": null, "photos": ["amenitas-44.png"] }, "geometry": { "type": "Point", "coordinates": [ 117.278577, 4.151405 ] } },
{ "type": "Feature", "properties": { "Name": "P01", "descriptio": "Penginapan", "timestamp": null, "begin": null, "end": null, "altitudeMo": null, "tessellate": -1, "extrude": 0, "visibility": -1, "drawOrder": null, "icon": null, "photos": ["amenitas-45.png"] }, "geometry": { "type": "Point", "coordinates": [ 117.275779, 4.155537 ] } },
{ "type": "Feature", "properties": { "Name": "MU02", "descriptio": "Musholla Nurul Iman", "timestamp": null, "begin": null, "end": null, "altitudeMo": null, "tessellate": -1, "extrude": 0, "visibility": -1, "drawOrder": null, "icon": null, "photos": ["amenitas-46.png"] }, "geometry": { "type": "Point", "coordinates": [ 117.281405, 4.151875 ] } },
{ "type": "Feature", "properties": { "Name": "MU LDII", "descriptio": "Musholla Al-Amin (LDII)", "timestamp": null, "begin": null, "end": null, "altitudeMo": null, "tessellate": -1, "extrude": 0, "visibility": -1, "drawOrder": null, "icon": null, "photos": ["amenitas-47.png"] }, "geometry": { "type": "Point", "coordinates": [ 117.282023, 4.154726 ] } },
{ "type": "Feature", "properties": { "Name": "MS01", "descriptio": "Musholla", "timestamp": null, "begin": null, "end": null, "altitudeMo": null, "tessellate": -1, "extrude": 0, "visibility": -1, "drawOrder": null, "icon": null, "photos": ["amenitas-48.png"] }, "geometry": { "type": "Point", "coordinates": [ 117.276589, 4.158394 ] } },
{ "type": "Feature", "properties": { "Name": "MI", "descriptio": "MI Mutiara Perbatasan", "timestamp": null, "begin": null, "end": null, "altitudeMo": null, "tessellate": -1, "extrude": 0, "visibility": -1, "drawOrder": null, "icon": null, "photos": ["amenitas-49.png", "amenitas-58.png"] }, "geometry": { "type": "Point", "coordinates": [ 117.276774, 4.154918 ] } },
{ "type": "Feature", "properties": { "Name": "M01", "descriptio": "Masjid Baiturrahman Sei Menggaris", "timestamp": null, "begin": null, "end": null, "altitudeMo": null, "tessellate": -1, "extrude": 0, "visibility": -1, "drawOrder": null, "icon": null, "photos": ["amenitas-50.png"] }, "geometry": { "type": "Point", "coordinates": [ 117.278839, 4.15537 ] } },
{ "type": "Feature", "properties": { "Name": "LP", "descriptio": "Lapangan Sepak Bola Sri Nanti", "timestamp": null, "begin": null, "end": null, "altitudeMo": null, "tessellate": -1, "extrude": 0, "visibility": -1, "drawOrder": null, "icon": null, "photos": ["amenitas-51.png"] }, "geometry": { "type": "Point", "coordinates": [ 117.279959, 4.153204 ] } },
{ "type": "Feature", "properties": { "Name": "KWT", "descriptio": "KWT Sari Mukti", "timestamp": null, "begin": null, "end": null, "altitudeMo": null, "tessellate": -1, "extrude": 0, "visibility": -1, "drawOrder": null, "icon": null, "photos": ["amenitas-52.png"] }, "geometry": { "type": "Point", "coordinates": [ 117.279653, 4.151922 ] } },
{ "type": "Feature", "properties": { "Name": "KUA", "descriptio": "Kantor KUA Kec. Sei Menggaris", "timestamp": null, "begin": null, "end": null, "altitudeMo": null, "tessellate": -1, "extrude": 0, "visibility": -1, "drawOrder": null, "icon": null, "photos": ["amenitas-53.png"] }, "geometry": { "type": "Point", "coordinates": [ 117.280185, 4.158883 ] } },
{ "type": "Feature", "properties": { "Name": "KS", "descriptio": "Kantor Pos Indonesia", "timestamp": null, "begin": null, "end": null, "altitudeMo": null, "tessellate": -1, "extrude": 0, "visibility": -1, "drawOrder": null, "icon": null, "photos": ["amenitas-54.png"] }, "geometry": { "type": "Point", "coordinates": [ 117.276534, 4.152314 ] } },
{ "type": "Feature", "properties": { "Name": "KP", "descriptio": "Kantor Polisi", "timestamp": null, "begin": null, "end": null, "altitudeMo": null, "tessellate": -1, "extrude": 0, "visibility": -1, "drawOrder": null, "icon": null, "photos": ["amenitas-55.png"] }, "geometry": { "type": "Point", "coordinates": [ 117.27432, 4.152247 ] } },
{ "type": "Feature", "properties": { "Name": "KD", "descriptio": "Kantor Desa Srinanti", "timestamp": null, "begin": null, "end": null, "altitudeMo": null, "tessellate": -1, "extrude": 0, "visibility": -1, "drawOrder": null, "icon": null, "photos": ["amenitas-56.png"] }, "geometry": { "type": "Point", "coordinates": [ 117.278759, 4.152061 ] } },
{ "type": "Feature", "properties": { "Name": "KC", "descriptio": "Kantor Kecamatan Sei Menggaris", "timestamp": null, "begin": null, "end": null, "altitudeMo": null, "tessellate": -1, "extrude": 0, "visibility": -1, "drawOrder": null, "icon": null, "photos": ["amenitas-57.png"] }, "geometry": { "type": "Point", "coordinates": [ 117.279946, 4.154023 ] } },
{ "type": "Feature", "properties": { "Name": "KB", "descriptio": "Kantor BUMDes Sinarjaya", "timestamp": null, "begin": null, "end": null, "altitudeMo": null, "tessellate": -1, "extrude": 0, "visibility": -1, "drawOrder": null, "icon": null, "photos": ["amenitas-58.png"] }, "geometry": { "type": "Point", "coordinates": [ 117.274421, 4.151728 ] } },
{ "type": "Feature", "properties": { "Name": "GC", "descriptio": "Gedung Kecamatan Sei Menggaris", "timestamp": null, "begin": null, "end": null, "altitudeMo": null, "tessellate": -1, "extrude": 0, "visibility": -1, "drawOrder": null, "icon": null, "photos": ["amenitas-59.png"] }, "geometry": { "type": "Point", "coordinates": [ 117.280135, 4.154996 ] } },
{ "type": "Feature", "properties": { "Name": "GB", "descriptio": "Gedung Baru", "timestamp": null, "begin": null, "end": null, "altitudeMo": null, "tessellate": -1, "extrude": 0, "visibility": -1, "drawOrder": null, "icon": null, "photos": ["amenitas-60.png"] }, "geometry": { "type": "Point", "coordinates": [ 117.28001, 4.154719 ] } },
{ "type": "Feature", "properties": { "Name": "G02", "descriptio": "Gereja Oikoumene Sei Menggaris", "timestamp": null, "begin": null, "end": null, "altitudeMo": null, "tessellate": -1, "extrude": 0, "visibility": -1, "drawOrder": null, "icon": null, "photos": ["amenitas-61.png", "amenitas-62.png"] }, "geometry": { "type": "Point", "coordinates": [ 117.279241, 4.151851 ] } },
{ "type": "Feature", "properties": { "Name": "G01", "descriptio": "Gereja Anglikan Indonesia, Sei Menggaris", "timestamp": null, "begin": null, "end": null, "altitudeMo": null, "tessellate": -1, "extrude": 0, "visibility": -1, "drawOrder": null, "icon": null, "photos": ["amenitas-63.png"] }, "geometry": { "type": "Point", "coordinates": [ 117.276347, 4.155695 ] } },
{ "type": "Feature", "properties": { "Name": "CF05", "descriptio": "Cafe Khanza", "timestamp": null, "begin": null, "end": null, "altitudeMo": null, "tessellate": -1, "extrude": 0, "visibility": -1, "drawOrder": null, "icon": null, "photos": ["amenitas-64.png"] }, "geometry": { "type": "Point", "coordinates": [ 117.274516, 4.153507 ] } },
{ "type": "Feature", "properties": { "Name": "CF04", "descriptio": "Kupikuu Cafe", "timestamp": null, "begin": null, "end": null, "altitudeMo": null, "tessellate": -1, "extrude": 0, "visibility": -1, "drawOrder": null, "icon": null, "photos": ["amenitas-65.png"] }, "geometry": { "type": "Point", "coordinates": [ 117.278698, 4.153587 ] } },
{ "type": "Feature", "properties": { "Name": "CF03", "descriptio": "Kopi Goy", "timestamp": null, "begin": null, "end": null, "altitudeMo": null, "tessellate": -1, "extrude": 0, "visibility": -1, "drawOrder": null, "icon": null, "photos": ["amenitas-66.png"] }, "geometry": { "type": "Point", "coordinates": [ 117.28047, 4.152666 ] } },
{ "type": "Feature", "properties": { "Name": "CF02", "descriptio": "Say Star Cafe", "timestamp": null, "begin": null, "end": null, "altitudeMo": null, "tessellate": -1, "extrude": 0, "visibility": -1, "drawOrder": null, "icon": null, "photos": ["amenitas-67.png"] }, "geometry": { "type": "Point", "coordinates": [ 117.2804, 4.154521 ] } },
{ "type": "Feature", "properties": { "Name": "CF01", "descriptio": "Cafe", "timestamp": null, "begin": null, "end": null, "altitudeMo": null, "tessellate": -1, "extrude": 0, "visibility": -1, "drawOrder": null, "icon": null, "photos": ["amenitas-68.png"] }, "geometry": { "type": "Point", "coordinates": [ 117.278431, 4.155503 ] } },
{ "type": "Feature", "properties": { "Name": "C01", "descriptio": "Counter Difa Cell", "timestamp": null, "begin": null, "end": null, "altitudeMo": null, "tessellate": -1, "extrude": 0, "visibility": -1, "drawOrder": null, "icon": null, "photos": ["amenitas-69.png"] }, "geometry": { "type": "Point", "coordinates": [ 117.276684, 4.155405 ] } },
{ "type": "Feature", "properties": { "Name": "BS", "descriptio": "Bensin Solar", "timestamp": null, "begin": null, "end": null, "altitudeMo": null, "tessellate": -1, "extrude": 0, "visibility": -1, "drawOrder": null, "icon": null, "photos": ["amenitas-70.png"] }, "geometry": { "type": "Point", "coordinates": [ 117.278467, 4.154769 ] } },
{ "type": "Feature", "properties": { "Name": "BB", "descriptio": "Babershop Bang Naff", "timestamp": null, "begin": null, "end": null, "altitudeMo": null, "tessellate": -1, "extrude": 0, "visibility": -1, "drawOrder": null, "icon": null, "photos": ["amenitas-71.png"] }, "geometry": { "type": "Point", "coordinates": [ 117.274551, 4.15359 ] } },
{ "type": "Feature", "properties": { "Name": "BANK", "descriptio": "Kantor Bankaltimtara", "timestamp": null, "begin": null, "end": null, "altitudeMo": null, "tessellate": -1, "extrude": 0, "visibility": -1, "drawOrder": null, "icon": null, "photos": ["amenitas-72.png", "amenitas-85.png"] }, "geometry": { "type": "Point", "coordinates": [ 117.278928, 4.151675 ] } },
{ "type": "Feature", "properties": { "Name": "B05", "descriptio": "Bengkel Motor", "timestamp": null, "begin": null, "end": null, "altitudeMo": null, "tessellate": -1, "extrude": 0, "visibility": -1, "drawOrder": null, "icon": null, "photos": ["amenitas-73.png"] }, "geometry": { "type": "Point", "coordinates": [ 117.276259, 4.151753 ] } },
{ "type": "Feature", "properties": { "Name": "B04", "descriptio": "Bengkel Motor Hanifa", "timestamp": null, "begin": null, "end": null, "altitudeMo": null, "tessellate": -1, "extrude": 0, "visibility": -1, "drawOrder": null, "icon": null, "photos": ["amenitas-74.png"] }, "geometry": { "type": "Point", "coordinates": [ 117.280459, 4.158577 ] } },
{ "type": "Feature", "properties": { "Name": "B03", "descriptio": "Bengkel Motor", "timestamp": null, "begin": null, "end": null, "altitudeMo": null, "tessellate": -1, "extrude": 0, "visibility": -1, "drawOrder": null, "icon": null, "photos": ["amenitas-75.png"] }, "geometry": { "type": "Point", "coordinates": [ 117.280445, 4.155653 ] } },
{ "type": "Feature", "properties": { "Name": "B02", "descriptio": "Bengkel Motor dan Toko Onderdil", "timestamp": null, "begin": null, "end": null, "altitudeMo": null, "tessellate": -1, "extrude": 0, "visibility": -1, "drawOrder": null, "icon": null, "photos": ["amenitas-76.png", "amenitas-90.png"] }, "geometry": { "type": "Point", "coordinates": [ 117.276712, 4.155249 ] } },
{ "type": "Feature", "properties": { "Name": "B01", "descriptio": "Bengkel Motor", "timestamp": null, "begin": null, "end": null, "altitudeMo": null, "tessellate": -1, "extrude": 0, "visibility": -1, "drawOrder": null, "icon": null, "photos": ["amenitas-77.png"] }, "geometry": { "type": "Point", "coordinates": [ 117.274675, 4.158891 ] } },
{ "type": "Feature", "properties": { "Name": "AK", "descriptio": "Apotek Ersyah Farma", "timestamp": null, "begin": null, "end": null, "altitudeMo": null, "tessellate": -1, "extrude": 0, "visibility": -1, "drawOrder": null, "icon": null, "photos": ["amenitas-78.png"] }, "geometry": { "type": "Point", "coordinates": [ 117.280451, 4.152709 ] } }
]
}